OBJECT_NAME,OBJECT_ID,EPOCH,MEAN_MOTION,ECCENTRICITY,INCLINATION,RA_OF_ASC_NODE,ARG_OF_PERICENTER,MEAN_ANOMALY,EPHEMERIS_TYPE,CLASSIFICATION_TYPE,NORAD_CAT_ID,ELEMENT_SET_NO,REV_AT_EPOCH,BSTAR,MEAN_MOTION_DOT,MEAN_MOTION_DDOT
STARLINK-37449,2026-131L,2026-06-28T13:48:21.583584,15.80878940,.00012085,97.2811,200.5310,108.1313,252.0087,0,U,69488,999,396,.46068035E-3,.89264E-3,0
STARLINK-37831,2026-131M,2026-06-28T13:47:17.024640,15.80889578,.00009458,97.2825,200.5328,122.6387,237.4973,0,U,69489,999,396,.8157991E-3,.159546E-2,0
STARLINK-37879,2026-131N,2026-06-28T13:46:11.585280,15.80791414,.00010212,97.2821,200.5337,118.9400,241.1971,0,U,69490,999,396,.15584705E-2,.308853E-2,0
STARLINK-37856,2026-131P,2026-06-28T16:00:03.000096,15.80804916,.00013289,97.2831,200.6144,69.8872,55.3535,0,U,69491,999,391,.23576689E-3,.4523E-3,0
STARLINK-37568,2026-131Q,2026-06-28T13:44:02.952096,15.80886377,.00027413,97.2820,200.5351,76.4792,283.6781,0,U,69492,999,396,.15423043E-2,.306914E-2,0
STARLINK-37855,2026-131R,2026-06-28T22:00:01.999584,15.80777670,.00013299,97.2830,200.8862,84.8403,39.1775,0,U,69493,999,395,.37590553E-3,.72334E-3,0
STARLINK-37854,2026-131S,2026-06-28T12:23:26.247264,15.80894634,.0000691,97.2822,200.4588,57.2703,302.8632,0,U,69494,999,395,.15134458E-2,.301073E-2,0
STARLINK-37789,2026-131T,2026-06-28T13:40:47.327808,15.80818779,.0000768,97.2834,200.5381,122.6824,237.4519,0,U,69495,999,270,.13250376E-2,.261458E-2,0
STARLINK-37839,2026-131U,2026-06-28T22:57:59.438880,15.80990923,.00013912,97.2825,200.9306,125.7854,234.3544,0,U,69496,999,276,.2222947E-2,.452083E-2,0
STARLINK-37798,2026-131V,2026-06-28T13:39:42.977088,15.81005349,.00008844,97.2840,200.5395,63.2315,296.9044,0,U,69497,999,270,.17795975E-2,.358205E-2,0
STARLINK-37853,2026-131W,2026-06-28T22:00:01.999584,15.80726597,.00012852,97.2832,200.9179,89.2222,108.2757,0,U,69498,999,395,.9366251E-3,.182319E-2,0
STARLINK-37849,2026-131X,2026-06-28T22:00:01.999584,15.80814008,.0001411,97.2829,200.9147,60.6607,132.6184,0,U,69499,999,397,-.56081716E-3,-.10626E-2,0
STARLINK-37835,2026-131Y,2026-06-28T13:37:33.247488,15.81020100,.00009344,97.2841,200.5416,73.4814,286.6557,0,U,69500,999,270,.19617495E-2,.396933E-2,0
STARLINK-37843,2026-131Z,2026-06-28T19:41:04.526592,15.80913372,.00013677,97.2829,200.8106,105.0853,255.0566,0,U,69501,999,274,.10820983E-2,.213221E-2,0
STARLINK-37536,2026-133A,2026-06-28T17:42:39.007872,15.80765474,.0001421,53.1587,264.2217,55.3831,304.7325,0,U,69508,999,259,.50109289E-4,.9153E-4,0
STARLINK-37341,2026-133B,2026-06-28T22:00:01.999584,15.79104883,.00010091,53.1590,263.2999,94.2716,216.9319,0,U,69509,999,385,-.15570829E-1,-.2437438E-1,0
STARLINK-36536,2026-133C,2026-06-28T22:00:01.999584,15.80862891,.00011065,53.1587,263.2666,101.2279,226.2069,0,U,69510,999,380,.82042995E-4,.15515E-3,0
STARLINK-37420,2026-133D,2026-06-28T22:00:01.999584,15.80869837,.00012272,53.1588,263.2249,93.5834,253.4492,0,U,69511,999,375,.382312E-5,.55E-6,0
STARLINK-37511,2026-133E,2026-06-28T22:00:01.999584,15.80862599,.00009597,53.1586,263.2417,85.1335,254.3821,0,U,69512,999,375,.911185E-4,.17312E-3,0
STARLINK-37552,2026-133F,2026-06-28T22:00:01.999584,15.76307365,.00005883,53.1590,263.2104,78.4436,275.8057,0,U,69513,999,375,-.16080215E-1,-.2246855E-1,0
STARLINK-37607,2026-133G,2026-06-28T22:00:01.999584,15.80870190,.00010069,53.1592,263.1801,81.7940,287.1676,0,U,69514,999,375,-.37166474E-4,-.8026E-4,0
STARLINK-37232,2026-133H,2026-06-28T22:00:01.999584,15.81370254,.0000298,53.1590,263.1344,79.1619,311.7817,0,U,69515,999,375,-.1042225E-1,-.1845343E-1,0
STARLINK-37323,2026-133J,2026-06-28T22:00:01.999584,15.80861051,.00009248,53.1594,263.1273,99.4721,294.7133,0,U,69516,999,375,.94870107E-4,.18054E-3,0
STARLINK-37357,2026-133K,2026-06-28T22:00:01.999584,15.74595592,.00008101,53.1594,263.1304,63.7128,328.7900,0,U,69517,999,375,-.17486991E-1,-.226268E-1,0
STARLINK-37408,2026-133L,2026-06-28T22:00:01.999584,15.80855062,.00008581,53.1592,263.0854,84.2915,329.9890,0,U,69518,999,375,.14650821E-3,.28288E-3,0
STARLINK-37570,2026-133M,2026-06-28T22:00:01.999584,15.78028518,.00008995,53.1594,263.0309,76.9961,3.2910,0,U,69519,999,375,-.14676431E-1,-.2220403E-1,0
STARLINK-37510,2026-133N,2026-06-28T22:00:01.999584,15.79884602,.00006381,53.1591,263.0601,72.5010,354.0411,0,U,69520,999,375,-.13775846E-1,-.2262418E-1,0
STARLINK-37586,2026-133P,2026-06-28T22:00:01.999584,15.80853502,.00013776,53.1589,262.9462,66.7608,54.5173,0,U,69521,999,375,.11000067E-3,.21045E-3,0
STARLINK-37379,2026-133Q,2026-06-28T22:00:01.999584,15.80867159,.00010521,53.1592,262.9561,70.0116,46.4204,0,U,69522,999,380,.25516301E-4,.4339E-4,0
STARLINK-37429,2026-133R,2026-06-28T22:00:01.999584,15.74781806,.00012371,53.1594,262.9658,53.0290,58.5257,0,U,69523,999,380,-.16739907E-1,-.2194677E-1,0
