[
  {
    "name": "STARLINK-37449",
    "noradId": "69488",
    "line1": "1 69488U 26131L   26179.57524981  .00089264  00000+0  46068-3 0  9999",
    "line2": "2 69488  97.2811 200.5310 0001208 108.1313 252.0087 15.80878940  3966"
  },
  {
    "name": "STARLINK-37831",
    "noradId": "69489",
    "line1": "1 69489U 26131M   26179.57450260  .00159546  00000+0  81580-3 0  9997",
    "line2": "2 69489  97.2825 200.5328 0000945 122.6387 237.4973 15.80889578  3960"
  },
  {
    "name": "STARLINK-37879",
    "noradId": "69490",
    "line1": "1 69490U 26131N   26179.57374520  .00308853  00000+0  15585-2 0  9991",
    "line2": "2 69490  97.2821 200.5337 0001021 118.9400 241.1971 15.80791414  3969"
  },
  {
    "name": "STARLINK-37856",
    "noradId": "69491",
    "line1": "1 69491U 26131P   26179.66670139  .00045230  00000+0  23577-3 0  9995",
    "line2": "2 69491  97.2831 200.6144 0001328  69.8872  55.3535 15.80804916  3913"
  },
  {
    "name": "STARLINK-37568",
    "noradId": "69492",
    "line1": "1 69492U 26131Q   26179.57225639  .00306914  00000+0  15423-2 0  9996",
    "line2": "2 69492  97.2820 200.5351 0002741  76.4792 283.6781 15.80886377  3961"
  },
  {
    "name": "STARLINK-37855",
    "noradId": "69493",
    "line1": "1 69493U 26131R   26179.91668981  .00072334  00000+0  37591-3 0  9993",
    "line2": "2 69493  97.2830 200.8862 0001329  84.8403  39.1775 15.80777670  3957"
  },
  {
    "name": "STARLINK-37854",
    "noradId": "69494",
    "line1": "1 69494U 26131S   26179.51627601  .00301073  00000+0  15134-2 0  9997",
    "line2": "2 69494  97.2822 200.4588 0000691  57.2703 302.8632 15.80894634  3950"
  },
  {
    "name": "STARLINK-37789",
    "noradId": "69495",
    "line1": "1 69495U 26131T   26179.56999222  .00261458  00000+0  13250-2 0  9993",
    "line2": "2 69495  97.2834 200.5381 0000768 122.6824 237.4519 15.80818779  2707"
  },
  {
    "name": "STARLINK-37839",
    "noradId": "69496",
    "line1": "1 69496U 26131U   26179.95693795  .00452083  00000+0  22229-2 0  9995",
    "line2": "2 69496  97.2825 200.9306 0001391 125.7854 234.3544 15.80990923  2761"
  },
  {
    "name": "STARLINK-37798",
    "noradId": "69497",
    "line1": "1 69497U 26131V   26179.56924742  .00358205  00000+0  17796-2 0  9996",
    "line2": "2 69497  97.2840 200.5395 0000884  63.2315 296.9044 15.81005349  2700"
  },
  {
    "name": "STARLINK-37853",
    "noradId": "69498",
    "line1": "1 69498U 26131W   26179.91668981  .00182319  00000+0  93663-3 0  9995",
    "line2": "2 69498  97.2832 200.9179 0001285  89.2222 108.2757 15.80726597  3955"
  },
  {
    "name": "STARLINK-37849",
    "noradId": "69499",
    "line1": "1 69499U 26131X   26179.91668981 -.00106260  00000+0 -56082-3 0  9993",
    "line2": "2 69499  97.2829 200.9147 0001411  60.6607 132.6184 15.80814008  3970"
  },
  {
    "name": "STARLINK-37835",
    "noradId": "69500",
    "line1": "1 69500U 26131Y   26179.56774592  .00396933  00000+0  19617-2 0  9991",
    "line2": "2 69500  97.2841 200.5416 0000934  73.4814 286.6557 15.81020100  2700"
  },
  {
    "name": "STARLINK-37843",
    "noradId": "69501",
    "line1": "1 69501U 26131Z   26179.82019128  .00213221  00000+0  10821-2 0  9994",
    "line2": "2 69501  97.2829 200.8106 0001367 105.0853 255.0566 15.80913372  2747"
  },
  {
    "name": "STARLINK-37536",
    "noradId": "69508",
    "line1": "1 69508U 26133A   26179.73795148  .00009153  00000+0  50109-4 0  9998",
    "line2": "2 69508  53.1587 264.2217 0001421  55.3831 304.7325 15.80765474  2593"
  },
  {
    "name": "STARLINK-37341",
    "noradId": "69509",
    "line1": "1 69509U 26133B   26179.91668981 -.02437438  00000+0 -15571-1 0  9999",
    "line2": "2 69509  53.1590 263.2999 0001009  94.2716 216.9319 15.79104883  3856"
  },
  {
    "name": "STARLINK-36536",
    "noradId": "69510",
    "line1": "1 69510U 26133C   26179.91668981  .00015515  00000+0  82043-4 0  9996",
    "line2": "2 69510  53.1587 263.2666 0001106 101.2279 226.2069 15.80862891  3809"
  },
  {
    "name": "STARLINK-37420",
    "noradId": "69511",
    "line1": "1 69511U 26133D   26179.91668981  .00000055  00000+0  38231-5 0  9991",
    "line2": "2 69511  53.1588 263.2249 0001227  93.5834 253.4492 15.80869837  3755"
  },
  {
    "name": "STARLINK-37511",
    "noradId": "69512",
    "line1": "1 69512U 26133E   26179.91668981  .00017312  00000+0  91119-4 0  9999",
    "line2": "2 69512  53.1586 263.2417 0000959  85.1335 254.3821 15.80862599  3759"
  },
  {
    "name": "STARLINK-37552",
    "noradId": "69513",
    "line1": "1 69513U 26133F   26179.91668981 -.02246855  00000+0 -16080-1 0  9991",
    "line2": "2 69513  53.1590 263.2104 0000588  78.4436 275.8057 15.76307365  3752"
  },
  {
    "name": "STARLINK-37607",
    "noradId": "69514",
    "line1": "1 69514U 26133G   26179.91668981 -.00008026  00000+0 -37166-4 0  9997",
    "line2": "2 69514  53.1592 263.1801 0001006  81.7940 287.1676 15.80870190  3750"
  },
  {
    "name": "STARLINK-37232",
    "noradId": "69515",
    "line1": "1 69515U 26133H   26179.91668981 -.01845343  00000+0 -10422-1 0  9993",
    "line2": "2 69515  53.1590 263.1344 0000298  79.1619 311.7817 15.81370254  3755"
  },
  {
    "name": "STARLINK-37323",
    "noradId": "69516",
    "line1": "1 69516U 26133J   26179.91668981  .00018054  00000+0  94870-4 0  9994",
    "line2": "2 69516  53.1594 263.1273 0000924  99.4721 294.7133 15.80861051  3756"
  },
  {
    "name": "STARLINK-37357",
    "noradId": "69517",
    "line1": "1 69517U 26133K   26179.91668981 -.02262680  00000+0 -17487-1 0  9991",
    "line2": "2 69517  53.1594 263.1304 0000810  63.7128 328.7900 15.74595592  3758"
  },
  {
    "name": "STARLINK-37408",
    "noradId": "69518",
    "line1": "1 69518U 26133L   26179.91668981  .00028288  00000+0  14651-3 0  9994",
    "line2": "2 69518  53.1592 263.0854 0000858  84.2915 329.9890 15.80855062  3759"
  },
  {
    "name": "STARLINK-37570",
    "noradId": "69519",
    "line1": "1 69519U 26133M   26179.91668981 -.02220403  00000+0 -14676-1 0  9997",
    "line2": "2 69519  53.1594 263.0309 0000899  76.9961   3.2910 15.78028518  3751"
  },
  {
    "name": "STARLINK-37510",
    "noradId": "69520",
    "line1": "1 69520U 26133N   26179.91668981 -.02262418  00000+0 -13776-1 0  9991",
    "line2": "2 69520  53.1591 263.0601 0000638  72.5010 354.0411 15.79884602  3751"
  },
  {
    "name": "STARLINK-37586",
    "noradId": "69521",
    "line1": "1 69521U 26133P   26179.91668981  .00021045  00000+0  11000-3 0  9997",
    "line2": "2 69521  53.1589 262.9462 0001377  66.7608  54.5173 15.80853502  3755"
  },
  {
    "name": "STARLINK-37379",
    "noradId": "69522",
    "line1": "1 69522U 26133Q   26179.91668981  .00004339  00000+0  25516-4 0  9993",
    "line2": "2 69522  53.1592 262.9561 0001052  70.0116  46.4204 15.80867159  3806"
  },
  {
    "name": "STARLINK-37429",
    "noradId": "69523",
    "line1": "1 69523U 26133R   26179.91668981 -.02194677  00000+0 -16740-1 0  9999",
    "line2": "2 69523  53.1594 262.9658 0001237  53.0290  58.5257 15.74781806  3804"
  }
]